{
  "name": "SATGUS",
  "line1": "1 62713U 25009DJ  26031.93830807  .00006837  00000+0  56575-3 0  9999",
  "line2": "2 62713  97.7152 114.5613 0002191 228.9858 131.1176 14.99214002 57136",
  "fetched_at": "2026-02-02T00:25:18.570153+00:00"
}